GNOMES-1                
1 46266U 20059B   26068.53916665  .00004080  00000+0  33422-3 0  9991
2 46266  97.8057 278.7760 0005451 357.8604   2.2595 14.99848479300657
STARLINK-5483           
1 55643U 23021R   26068.73564082  .00000332  00000+0  35601-4 0  9994
2 55643  70.0008 184.5203 0003217 267.5400  92.5391 14.98333011168793
