[{"OBJECT_NAME":"GNOMES-1","OBJECT_ID":"2020-059B","EPOCH":"2026-03-09T12:56:23.998560","MEAN_MOTION":14.99848479,"ECCENTRICITY":0.00054513,"INCLINATION":97.8057,"RA_OF_ASC_NODE":278.776,"ARG_OF_PERICENTER":357.8604,"MEAN_ANOMALY":2.2595,"EPHEMERIS_TYPE":0,"CLASSIFICATION_TYPE":"U","NORAD_CAT_ID":46266,"ELEMENT_SET_NO":999,"REV_AT_EPOCH":30065,"BSTAR":0.00033421547,"MEAN_MOTION_DOT":4.08e-5,"MEAN_MOTION_DDOT":0},{"OBJECT_NAME":"STARLINK-5483","OBJECT_ID":"2023-021R","EPOCH":"2026-03-09T17:39:19.367712","MEAN_MOTION":14.98333011,"ECCENTRICITY":0.00032166,"INCLINATION":70.0008,"RA_OF_ASC_NODE":184.5203,"ARG_OF_PERICENTER":267.54,"MEAN_ANOMALY":92.5391,"EPHEMERIS_TYPE":0,"CLASSIFICATION_TYPE":"U","NORAD_CAT_ID":55643,"ELEMENT_SET_NO":999,"REV_AT_EPOCH":16879,"BSTAR":3.5601145e-5,"MEAN_MOTION_DOT":3.32e-6,"MEAN_MOTION_DDOT":0}]
